[{"OBJECT_NAME":"STARLINK-34353","OBJECT_ID":"2025-120Y","EPOCH":"2026-03-09T10:23:16.296864","MEAN_MOTION":15.3019497,"ECCENTRICITY":0.00012392,"INCLINATION":53.158,"RA_OF_ASC_NODE":118.1088,"ARG_OF_PERICENTER":75.5303,"MEAN_ANOMALY":284.5835,"EPHEMERIS_TYPE":0,"CLASSIFICATION_TYPE":"U","NORAD_CAT_ID":64278,"ELEMENT_SET_NO":999,"REV_AT_EPOCH":4387,"BSTAR":0.00086822499,"MEAN_MOTION_DOT":0.00025439,"MEAN_MOTION_DDOT":0},{"OBJECT_NAME":"ELEKTRON 1 DEB","OBJECT_ID":"1964-006C","EPOCH":"2026-03-09T22:10:00.918336","MEAN_MOTION":12.47513662,"ECCENTRICITY":0.13967706,"INCLINATION":60.7461,"RA_OF_ASC_NODE":226.3873,"ARG_OF_PERICENTER":16.6237,"MEAN_ANOMALY":347.6075,"EPHEMERIS_TYPE":0,"CLASSIFICATION_TYPE":"U","NORAD_CAT_ID":750,"ELEMENT_SET_NO":999,"REV_AT_EPOCH":83425,"BSTAR":0.0014750203,"MEAN_MOTION_DOT":0.00014937,"MEAN_MOTION_DDOT":0}]
